[{"OBJECT_NAME":"UWE-3","OBJECT_ID":"2013-066AG","EPOCH":"2026-03-05T20:25:02.694432","MEAN_MOTION":14.96126332,"ECCENTRICITY":0.00487278,"INCLINATION":97.8596,"RA_OF_ASC_NODE":20.3678,"ARG_OF_PERICENTER":305.6188,"MEAN_ANOMALY":54.0499,"EPHEMERIS_TYPE":0,"CLASSIFICATION_TYPE":"U","NORAD_CAT_ID":39446,"ELEMENT_SET_NO":999,"REV_AT_EPOCH":66212,"BSTAR":0.00062262764,"MEAN_MOTION_DOT":7.116e-5,"MEAN_MOTION_DDOT":0},{"OBJECT_NAME":"UNISAT-6","OBJECT_ID":"2014-033C","EPOCH":"2026-03-06T05:49:58.449504","MEAN_MOTION":14.87606427,"ECCENTRICITY":0.00463294,"INCLINATION":97.7721,"RA_OF_ASC_NODE":219.8925,"ARG_OF_PERICENTER":49.1054,"MEAN_ANOMALY":311.4161,"EPHEMERIS_TYPE":0,"CLASSIFICATION_TYPE":"U","NORAD_CAT_ID":40012,"ELEMENT_SET_NO":999,"REV_AT_EPOCH":63085,"BSTAR":0.00051396328,"MEAN_MOTION_DOT":4.71e-5,"MEAN_MOTION_DDOT":0},{"OBJECT_NAME":"DUCHIFAT-1","OBJECT_ID":"2014-033M","EPOCH":"2026-03-06T02:00:20.118816","MEAN_MOTION":15.49284424,"ECCENTRICITY":0.000646,"INCLINATION":98.0634,"RA_OF_ASC_NODE":111.0868,"ARG_OF_PERICENTER":95.0854,"MEAN_ANOMALY":265.1132,"EPHEMERIS_TYPE":0,"CLASSIFICATION_TYPE":"U","NORAD_CAT_ID":40021,"ELEMENT_SET_NO":999,"REV_AT_EPOCH":63971,"BSTAR":0.00101087,"MEAN_MOTION_DOT":0.00055499,"MEAN_MOTION_DDOT":0},{"OBJECT_NAME":"QB50P1","OBJECT_ID":"2014-033R","EPOCH":"2026-03-06T06:41:33.341568","MEAN_MOTION":15.16428429,"ECCENTRICITY":0.00079085,"INCLINATION":98.1008,"RA_OF_ASC_NODE":69.3311,"ARG_OF_PERICENTER":207.3116,"MEAN_ANOMALY":152.7701,"EPHEMERIS_TYPE":0,"CLASSIFICATION_TYPE":"U","NORAD_CAT_ID":40025,"ELEMENT_SET_NO":999,"REV_AT_EPOCH":63742,"BSTAR":0.00060635637,"MEAN_MOTION_DOT":0.00011732,"MEAN_MOTION_DDOT":0},{"OBJECT_NAME":"LILACSAT-2","OBJECT_ID":"2015-049K","EPOCH":"2026-03-06T06:47:01.614912","MEAN_MOTION":15.47870845,"ECCENTRICITY":0.00055817,"INCLINATION":97.481,"RA_OF_ASC_NODE":98.3886,"ARG_OF_PERICENTER":262.391,"MEAN_ANOMALY":97.6706,"EPHEMERIS_TYPE":0,"CLASSIFICATION_TYPE":"U","NORAD_CAT_ID":40908,"ELEMENT_SET_NO":999,"REV_AT_EPOCH":57981,"BSTAR":0.00037449975,"MEAN_MOTION_DOT":0.00019421,"MEAN_MOTION_DDOT":0},{"OBJECT_NAME":"FOX-1A (AO-85)","OBJECT_ID":"2015-058D","EPOCH":"2026-03-05T23:15:08.003232","MEAN_MOTION":14.90316117,"ECCENTRICITY":0.01290651,"INCLINATION":64.774,"RA_OF_ASC_NODE":239.5934,"ARG_OF_PERICENTER":97.4133,"MEAN_ANOMALY":264.1666,"EPHEMERIS_TYPE":0,"CLASSIFICATION_TYPE":"U","NORAD_CAT_ID":40967,"ELEMENT_SET_NO":999,"REV_AT_EPOCH":9818,"BSTAR":0.00042003243,"MEAN_MOTION_DOT":4.624e-5,"MEAN_MOTION_DDOT":0},{"OBJECT_NAME":"CAS-2T & KS-1Q","OBJECT_ID":"2016-066G","EPOCH":"2026-03-06T04:10:58.387296","MEAN_MOTION":14.44455379,"ECCENTRICITY":0.03437702,"INCLINATION":98.3893,"RA_OF_ASC_NODE":142.0633,"ARG_OF_PERICENTER":82.1221,"MEAN_ANOMALY":281.8839,"EPHEMERIS_TYPE":0,"CLASSIFICATION_TYPE":"U","NORAD_CAT_ID":41847,"ELEMENT_SET_NO":999,"REV_AT_EPOCH":48992,"BSTAR":0.00023228163,"MEAN_MOTION_DOT":1.606e-5,"MEAN_MOTION_DDOT":0},{"OBJECT_NAME":"RADFXSAT (FOX-1B)","OBJECT_ID":"2017-073E","EPOCH":"2026-03-06T03:37:46.812864","MEAN_MOTION":15.10783055,"ECCENTRICITY":0.01549464,"INCLINATION":97.4864,"RA_OF_ASC_NODE":294.5226,"ARG_OF_PERICENTER":324.4724,"MEAN_ANOMALY":34.6264,"EPHEMERIS_TYPE":0,"CLASSIFICATION_TYPE":"U","NORAD_CAT_ID":43017,"ELEMENT_SET_NO":999,"REV_AT_EPOCH":44982,"BSTAR":0.00052275489,"MEAN_MOTION_DOT":0.00011518,"MEAN_MOTION_DDOT":0},{"OBJECT_NAME":"DIWATA-2B","OBJECT_ID":"2018-084H","EPOCH":"2026-03-06T07:40:51.011040","MEAN_MOTION":14.99937067,"ECCENTRICITY":0.00114071,"INCLINATION":98.1032,"RA_OF_ASC_NODE":257.2183,"ARG_OF_PERICENTER":137.182,"MEAN_ANOMALY":223.0293,"EPHEMERIS_TYPE":0,"CLASSIFICATION_TYPE":"U","NORAD_CAT_ID":43678,"ELEMENT_SET_NO":999,"REV_AT_EPOCH":40079,"BSTAR":0.00013665193,"MEAN_MOTION_DOT":1.633e-5,"MEAN_MOTION_DDOT":0},{"OBJECT_NAME":"ES'HAIL 2","OBJECT_ID":"2018-090A","EPOCH":"2026-03-05T12:24:28.317024","MEAN_MOTION":1.00272028,"ECCENTRICITY":0.0002702,"INCLINATION":0.0102,"RA_OF_ASC_NODE":207.479,"ARG_OF_PERICENTER":172.6625,"MEAN_ANOMALY":355.0003,"EPHEMERIS_TYPE":0,"CLASSIFICATION_TYPE":"U","NORAD_CAT_ID":43700,"ELEMENT_SET_NO":999,"REV_AT_EPOCH":2663,"BSTAR":0,"MEAN_MOTION_DOT":1.37e-6,"MEAN_MOTION_DDOT":0},{"OBJECT_NAME":"FOX-1CLIFF (AO-95)","OBJECT_ID":"2018-099N","EPOCH":"2026-03-06T03:56:19.053888","MEAN_MOTION":15.24297811,"ECCENTRICITY":0.00086613,"INCLINATION":97.4513,"RA_OF_ASC_NODE":125.9055,"ARG_OF_PERICENTER":0.3081,"MEAN_ANOMALY":359.816,"EPHEMERIS_TYPE":0,"CLASSIFICATION_TYPE":"U","NORAD_CAT_ID":43770,"ELEMENT_SET_NO":999,"REV_AT_EPOCH":39751,"BSTAR":0.00053933205,"MEAN_MOTION_DOT":0.00013132,"MEAN_MOTION_DDOT":0},{"OBJECT_NAME":"ITASAT","OBJECT_ID":"2018-099AE","EPOCH":"2026-03-06T01:58:27.701184","MEAN_MOTION":15.17603175,"ECCENTRICITY":0.00125631,"INCLINATION":97.4167,"RA_OF_ASC_NODE":118.6838,"ARG_OF_PERICENTER":359.4146,"MEAN_ANOMALY":0.7071,"EPHEMERIS_TYPE":0,"CLASSIFICATION_TYPE":"U","NORAD_CAT_ID":43786,"ELEMENT_SET_NO":999,"REV_AT_EPOCH":39726,"BSTAR":0.00042271882,"MEAN_MOTION_DOT":8.451e-5,"MEAN_MOTION_DDOT":0},{"OBJECT_NAME":"JY1SAT (JO-97)","OBJECT_ID":"2018-099AX","EPOCH":"2026-03-06T03:43:26.004576","MEAN_MOTION":15.30136509,"ECCENTRICITY":0.00046418,"INCLINATION":97.4257,"RA_OF_ASC_NODE":127.8319,"ARG_OF_PERICENTER":273.925,"MEAN_ANOMALY":86.1459,"EPHEMERIS_TYPE":0,"CLASSIFICATION_TYPE":"U","NORAD_CAT_ID":43803,"ELEMENT_SET_NO":999,"REV_AT_EPOCH":39785,"BSTAR":0.00062230926,"MEAN_MOTION_DOT":0.000181,"MEAN_MOTION_DDOT":0},{"OBJECT_NAME":"UWE-4","OBJECT_ID":"2018-111E","EPOCH":"2026-03-06T05:32:34.143936","MEAN_MOTION":15.39702475,"ECCENTRICITY":0.00081729,"INCLINATION":97.5854,"RA_OF_ASC_NODE":349.3943,"ARG_OF_PERICENTER":353.3783,"MEAN_ANOMALY":6.7353,"EPHEMERIS_TYPE":0,"CLASSIFICATION_TYPE":"U","NORAD_CAT_ID":43880,"ELEMENT_SET_NO":999,"REV_AT_EPOCH":39490,"BSTAR":0.00089221305,"MEAN_MOTION_DOT":0.00035322,"MEAN_MOTION_DDOT":0},{"OBJECT_NAME":"TIANYAN 01","OBJECT_ID":"2019-093C","EPOCH":"2026-03-06T06:03:20.078208","MEAN_MOTION":14.86332598,"ECCENTRICITY":0.00150166,"INCLINATION":97.762,"RA_OF_ASC_NODE":139.9721,"ARG_OF_PERICENTER":68.2156,"MEAN_ANOMALY":292.0656,"EPHEMERIS_TYPE":0,"CLASSIFICATION_TYPE":"U","NORAD_CAT_ID":44881,"ELEMENT_SET_NO":999,"REV_AT_EPOCH":33612,"BSTAR":0.00012896838,"MEAN_MOTION_DOT":1.085e-5,"MEAN_MOTION_DDOT":0},{"OBJECT_NAME":"RS-44 & BREEZE-KM R/B","OBJECT_ID":"2019-096E","EPOCH":"2026-03-05T21:15:16.428384","MEAN_MOTION":12.79747357,"ECCENTRICITY":0.02180871,"INCLINATION":82.5195,"RA_OF_ASC_NODE":48.3426,"ARG_OF_PERICENTER":26.1965,"MEAN_ANOMALY":334.9976,"EPHEMERIS_TYPE":0,"CLASSIFICATION_TYPE":"U","NORAD_CAT_ID":44909,"ELEMENT_SET_NO":999,"REV_AT_EPOCH":28913,"BSTAR":-4.0098171e-5,"MEAN_MOTION_DOT":2.0e-8,"MEAN_MOTION_DDOT":0}]
