UWE-3                   
1 39446U 13066AG  26064.85072563  .00007116  00000+0  62263-3 0  9992
2 39446  97.8596  20.3678 0048727 305.6188  54.0499 14.96126332662122
UNISAT-6                
1 40012U 14033C   26065.24303761  .00004710  00000+0  51396-3 0  9991
2 40012  97.7721 219.8925 0046329  49.1054 311.4161 14.87606427630859
DUCHIFAT-1              
1 40021U 14033M   26065.08356619  .00055499  00000+0  10109-2 0  9999
2 40021  98.0634 111.0868 0006460  95.0854 265.1132 15.49284424639710
QB50P1                  
1 40025U 14033R   26065.27885812  .00011732  00000+0  60636-3 0  9999
2 40025  98.1008  69.3311 0007908 207.3116 152.7701 15.16428429637423
LILACSAT-2              
1 40908U 15049K   26065.28265758  .00019421  00000+0  37450-3 0  9990
2 40908  97.4810  98.3886 0005581 262.3910  97.6706 15.47870845579810
FOX-1A (AO-85)          
1 40967U 15058D   26064.96884263  .00004624  00000+0  42003-3 0  9996
2 40967  64.7740 239.5934 0129065  97.4133 264.1666 14.90316117 98181
CAS-2T & KS-1Q          
1 41847U 16066G   26065.17428689  .00001606  00000+0  23228-3 0  9999
2 41847  98.3893 142.0633 0343770  82.1221 281.8839 14.44455379489922
RADFXSAT (FOX-1B)       
1 43017U 17073E   26065.15123626  .00011518  00000+0  52275-3 0  9997
2 43017  97.4864 294.5226 0154946 324.4724  34.6264 15.10783055449827
DIWATA-2B               
1 43678U 18084H   26065.32003485  .00001633  00000+0  13665-3 0  9999
2 43678  98.1032 257.2183 0011407 137.1820 223.0293 14.99937067400792
ES'HAIL 2               
1 43700U 18090A   26064.51699441  .00000137  00000+0  00000+0 0  9998
2 43700   0.0102 207.4790 0002702 172.6625 355.0003  1.00272028 26633
FOX-1CLIFF (AO-95)      
1 43770U 18099N   26065.16410942  .00013132  00000+0  53933-3 0  9999
2 43770  97.4513 125.9055 0008661   0.3081 359.8160 15.24297811397519
ITASAT                  
1 43786U 18099AE  26065.08226506  .00008451  00000+0  42272-3 0  9990
2 43786  97.4167 118.6838 0012563 359.4146   0.7071 15.17603175397266
JY1SAT (JO-97)          
1 43803U 18099AX  26065.15516209  .00018100  00000+0  62231-3 0  9999
2 43803  97.4257 127.8319 0004641 273.9250  86.1459 15.30136509397856
UWE-4                   
1 43880U 18111E   26065.23095074  .00035322  00000+0  89221-3 0  9993
2 43880  97.5854 349.3943 0008172 353.3783   6.7353 15.39702475394900
TIANYAN 01              
1 44881U 19093C   26065.25231572  .00001085  00000+0  12897-3 0  9996
2 44881  97.7620 139.9721 0015016  68.2156 292.0656 14.86332598336125
RS-44 & BREEZE-KM R/B   
1 44909U 19096E   26064.88560681  .00000002  00000+0 -40098-4 0  9998
2 44909  82.5195  48.3426 0218087  26.1965 334.9976 12.79747357289136
